[{"OBJECT_NAME":"SDA_1679","OBJECT_ID":"2025-230R","EPOCH":"2026-03-09T17:52:28.680096","MEAN_MOTION":13.85334515,"ECCENTRICITY":0.0004897,"INCLINATION":81.3013,"RA_OF_ASC_NODE":303.8521,"ARG_OF_PERICENTER":108.9978,"MEAN_ANOMALY":251.171,"EPHEMERIS_TYPE":0,"CLASSIFICATION_TYPE":"U","NORAD_CAT_ID":65989,"ELEMENT_SET_NO":999,"REV_AT_EPOCH":2005,"BSTAR":0.00022111439,"MEAN_MOTION_DOT":2.63e-6,"MEAN_MOTION_DDOT":0},{"OBJECT_NAME":"THOR ABLESTAR DEB","OBJECT_ID":"1961-015FU","EPOCH":"2026-03-09T17:06:37.324800","MEAN_MOTION":13.99400268,"ECCENTRICITY":0.00848489,"INCLINATION":66.8786,"RA_OF_ASC_NODE":212.8736,"ARG_OF_PERICENTER":243.0907,"MEAN_ANOMALY":116.1489,"EPHEMERIS_TYPE":0,"CLASSIFICATION_TYPE":"U","NORAD_CAT_ID":530,"ELEMENT_SET_NO":999,"REV_AT_EPOCH":29370,"BSTAR":0.00021669812,"MEAN_MOTION_DOT":2.48e-6,"MEAN_MOTION_DDOT":0}]
